OBJECT_NAME,OBJECT_ID,EPOCH,MEAN_MOTION,ECCENTRICITY,INCLINATION,RA_OF_ASC_NODE,ARG_OF_PERICENTER,MEAN_ANOMALY,EPHEMERIS_TYPE,CLASSIFICATION_TYPE,NORAD_CAT_ID,ELEMENT_SET_NO,REV_AT_EPOCH,BSTAR,MEAN_MOTION_DOT,MEAN_MOTION_DDOT
COSMOS 2058,1990-010A,2026-07-04T12:57:25.072992,15.12122284,.00082578,82.4686,292.2429,294.4792,65.5577,0,U,20465,999,95989,.25059819E-3,.4347E-4,0
SL-14 R/B,1990-010B,2026-07-04T08:46:43.710816,14.83657973,.00181952,82.5025,157.8117,275.9793,83.9348,0,U,20466,999,94578,.52652717E-4,.459E-5,0
SL-14 R/B,1990-018B,2026-07-04T05:25:19.709184,14.82228417,.00176303,82.5221,114.1829,70.3890,289.9225,0,U,20511,999,93984,.58709853E-4,.493E-5,0
HST,1990-037B,2026-07-04T14:45:00.835200,15.30968404,.00017163,28.4737,321.4511,358.4915,1.5676,0,U,20580,999,79124,.36736154E-3,.11562E-3,0
SL-16 R/B,1990-046B,2026-07-04T01:19:49.946880,14.15023800,.00124943,70.9989,53.5223,134.0723,226.1431,0,U,20625,999,86485,-.80160372E-4,-.203E-5,0
COSMOS 2084,1990-055A,2026-07-04T14:08:16.894752,15.06195434,.00068282,62.7912,296.6926,306.7273,53.3200,0,U,20663,999,95392,.25043241E-3,.3489E-4,0
SL-6 R/B(2),1990-055D,2026-07-04T01:40:28.526304,15.04056150,.00433675,62.7801,217.9244,7.4323,352.7410,0,U,20666,999,95569,.14284592E-3,.1818E-4,0
SL-8 R/B,1990-078B,2026-07-04T08:31:02.859744,14.93204024,.03458266,82.9025,146.1228,340.4388,18.3823,0,U,20775,999,82668,.95635697E-3,.338E-3,0
SL-8 R/B,1991-006B,2026-07-04T10:42:16.739712,13.77507798,.00238204,82.9420,83.1946,69.0483,104.7141,0,U,21088,999,78014,.82170703E-4,.97E-6,0
OKEAN-3,1991-039A,2026-07-04T08:30:36.983808,15.05399434,.00121211,82.5142,223.7336,294.7131,65.2834,0,U,21397,999,88258,.17222146E-3,.25E-4,0
COSMOS 2151,1991-042A,2026-07-04T09:33:57.127104,15.00489643,.0012958,82.4973,331.0696,31.0983,329.1005,0,U,21422,999,88069,.14769331E-3,.1889E-4,0
SL-14 R/B,1991-042B,2026-07-04T12:08:51.245952,14.81914007,.00160483,82.4935,110.6553,212.9134,147.1082,0,U,21423,999,87037,.60179343E-4,.5E-5,0
ERS-1,1991-050A,2026-07-03T11:58:38.450496,14.39528005,.00312203,98.7793,205.5954,216.9380,142.9657,0,U,21574,999,83239,.1305005E-3,.363E-5,0
ARIANE 40 R/B,1991-050F,2026-07-04T09:13:52.142592,14.42967391,.0004437,98.1866,233.1310,84.6397,275.5299,0,U,21610,999,83582,.11250048E-3,.335E-5,0
INTERCOSMOS 25,1991-086A,2026-07-04T10:40:50.242944,12.12223610,.14840864,82.6026,239.3665,225.1288,121.9513,0,U,21819,999,51083,.21200826E-3,.1072E-4,0
SL-8 R/B,1992-008B,2026-07-04T10:49:10.479072,13.75981465,.0034991,82.9261,180.9514,166.0985,346.3162,0,U,21876,999,72547,.1415257E-3,.153E-5,0
SL-8 R/B,1992-020B,2026-07-04T11:04:21.806400,13.75550213,.00285367,82.9295,67.0260,334.5024,198.6066,0,U,21938,999,71718,.29246531E-4,.43E-6,0
USA 81,1992-023A,2026-07-04T09:21:01.874592,14.32402871,.00024185,85.0061,64.0781,70.3717,289.7736,0,U,21949,999,11149,.62198732E-4,.188E-5,0
COSMOS 2219,1992-076A,2026-07-04T14:12:27.887616,14.14109845,.00175637,71.0610,133.6876,14.6486,345.5141,0,U,22219,999,73490,.7832787E-4,.102E-5,0
SL-16 R/B,1992-076B,2026-07-04T14:23:04.067232,14.16874169,.00150388,71.0012,302.1014,275.7853,95.9283,0,U,22220,999,73839,-.10010718E-4,-.68E-6,0
COSMOS 2221,1992-080A,2026-07-04T09:20:45.586464,14.96580926,.00148751,82.5035,167.2828,153.8970,206.3005,0,U,22236,999,79824,.15921481E-3,.1842E-4,0
SL-16 R/B,1992-093B,2026-07-04T13:21:18.896544,14.15465849,.00029302,71.0220,118.9285,156.2647,203.8611,0,U,22285,999,72969,.14364519E-3,.233E-5,0
COSMOS 2228,1992-094A,2026-07-04T06:12:59.423040,14.97648794,.00159567,82.5186,125.6908,269.8499,90.0895,0,U,22286,999,79350,.18927982E-3,.2245E-4,0
SL-16 R/B,1993-016B,2026-07-04T09:31:39.856512,14.15313006,.00091777,71.0087,330.0601,157.3446,202.8084,0,U,22566,999,71868,-.11014105E-3,-.262E-5,0
COSMOS 2242,1993-024A,2026-07-04T15:03:23.624064,14.96962944,.00143891,82.5190,154.8569,272.4165,87.5410,0,U,22626,999,79788,.21302192E-3,.2478E-4,0
SL-16 R/B,1993-059B,2026-07-04T13:41:18.060288,14.17250875,.00160816,70.9903,124.6460,25.3207,334.8701,0,U,22803,999,69609,.12272134E-3,.2E-5,0
ARIANE 40 R/B,1993-061H,2026-07-04T04:09:59.495328,14.32915060,.0009593,98.4811,251.6774,302.5493,57.4765,0,U,22830,999,71078,.99392798E-4,.228E-5,0
COSMOS 2278,1994-023A,2026-07-04T13:46:31.419264,14.14395935,.00101517,71.0545,290.5482,221.6323,138.4028,0,U,23087,999,66133,-.81187837E-4,-.203E-5,0
SL-16 R/B,1994-023B,2026-07-04T10:14:18.034368,14.15025592,.0001679,70.9977,185.7269,164.6724,195.4449,0,U,23088,999,66260,-.95373919E-4,-.232E-5,0
SL-16 R/B,1994-074B,2026-07-04T13:05:54.534912,14.79518643,.00062176,97.6985,211.5430,187.6394,325.0204,0,U,23343,999,70452,.93208609E-4,.648E-5,0
