COSMOS 2058             
1 20465U 90010A   26185.53987353  .00004347  00000+0  25060-3 0  9995
2 20465  82.4686 292.2429 0008257 294.4792  65.5577 15.12122284959895
SL-14 R/B               
1 20466U 90010B   26185.36578369  .00000459  00000+0  52653-4 0  9999
2 20466  82.5025 157.8117 0018195 275.9793  83.9348 14.83657973945789
SL-14 R/B               
1 20511U 90018B   26185.22592256  .00000493  00000+0  58710-4 0  9992
2 20511  82.5221 114.1829 0017630  70.3890 289.9225 14.82228417939840
HST                     
1 20580U 90037B   26185.61459300  .00011562  00000+0  36736-3 0  9996
2 20580  28.4737 321.4511 0001716 358.4915   1.5676 15.30968404791243
SL-16 R/B               
1 20625U 90046B   26185.05543920 -.00000203  00000+0 -80160-4 0  9999
2 20625  70.9989  53.5223 0012494 134.0723 226.1431 14.15023800864853
COSMOS 2084             
1 20663U 90055A   26185.58908443  .00003489  00000+0  25043-3 0  9999
2 20663  62.7912 296.6926 0006828 306.7273  53.3200 15.06195434953927
SL-6 R/B(2)             
1 20666U 90055D   26185.06977461  .00001818  00000+0  14285-3 0  9991
2 20666  62.7801 217.9244 0043367   7.4323 352.7410 15.04056150955690
SL-8 R/B                
1 20775U 90078B   26185.35489421  .00033800  00000+0  95636-3 0  9998
2 20775  82.9025 146.1228 0345826 340.4388  18.3823 14.93204024826685
SL-8 R/B                
1 21088U 91006B   26185.44602708  .00000097  00000+0  82171-4 0  9996
2 21088  82.9420  83.1946 0023820  69.0483 104.7141 13.77507798780144
OKEAN-3                 
1 21397U 91039A   26185.35459472  .00002500  00000+0  17222-3 0  9998
2 21397  82.5142 223.7336 0012121 294.7131  65.2834 15.05399434882588
COSMOS 2151             
1 21422U 91042A   26185.39857786  .00001889  00000+0  14769-3 0  9997
2 21422  82.4973 331.0696 0012958  31.0983 329.1005 15.00489643880694
SL-14 R/B               
1 21423U 91042B   26185.50614868  .00000500  00000+0  60179-4 0  9999
2 21423  82.4935 110.6553 0016048 212.9134 147.1082 14.81914007870370
ERS-1                   
1 21574U 91050A   26184.49905614  .00000363  00000+0  13050-3 0  9996
2 21574  98.7793 205.5954 0031220 216.9380 142.9657 14.39528005832397
ARIANE 40 R/B           
1 21610U 91050F   26185.38463128  .00000335  00000+0  11250-3 0  9994
2 21610  98.1866 233.1310 0004437  84.6397 275.5299 14.42967391835829
INTERCOSMOS 25          
1 21819U 91086A   26185.44502596  .00001072  00000+0  21201-3 0  9990
2 21819  82.6026 239.3665 1484086 225.1288 121.9513 12.12223610510839
SL-8 R/B                
1 21876U 92008B   26185.45081573  .00000153  00000+0  14153-3 0  9993
2 21876  82.9261 180.9514 0034991 166.0985 346.3162 13.75981465725472
SL-8 R/B                
1 21938U 92020B   26185.46136350  .00000043  00000+0  29247-4 0  9990
2 21938  82.9295  67.0260 0028536 334.5024 198.6066 13.75550213717188
USA 81                  
1 21949U 92023A   26185.38960503  .00000188  00000+0  62199-4 0  9994
2 21949  85.0061  64.0781 0002418  70.3717 289.7736 14.32402871111493
COSMOS 2219             
1 22219U 92076A   26185.59198944  .00000102  00000+0  78328-4 0  9995
2 22219  71.0610 133.6876 0017563  14.6486 345.5141 14.14109845734901
SL-16 R/B               
1 22220U 92076B   26185.59935263 -.00000068  00000+0 -10011-4 0  9998
2 22220  71.0012 302.1014 0015038 275.7853  95.9283 14.16874169738399
COSMOS 2221             
1 22236U 92080A   26185.38941651  .00001842  00000+0  15921-3 0  9998
2 22236  82.5035 167.2828 0014875 153.8970 206.3005 14.96580926798248
SL-16 R/B               
1 22285U 92093B   26185.55646871  .00000233  00000+0  14365-3 0  9995
2 22285  71.0220 118.9285 0002930 156.2647 203.8611 14.15465849729693
COSMOS 2228             
1 22286U 92094A   26185.25902110  .00002245  00000+0  18928-3 0  9999
2 22286  82.5186 125.6908 0015956 269.8499  90.0895 14.97648794793500
SL-16 R/B               
1 22566U 93016B   26185.39698908 -.00000262  00000+0 -11014-3 0  9995
2 22566  71.0087 330.0601 0009177 157.3446 202.8084 14.15313006718681
COSMOS 2242             
1 22626U 93024A   26185.62735676  .00002478  00000+0  21302-3 0  9991
2 22626  82.5190 154.8569 0014389 272.4165  87.5410 14.96962944797883
SL-16 R/B               
1 22803U 93059B   26185.57034792  .00000200  00000+0  12272-3 0  9998
2 22803  70.9903 124.6460 0016081  25.3207 334.8701 14.17250875696099
ARIANE 40 R/B           
1 22830U 93061H   26185.17360527  .00000228  00000+0  99393-4 0  9995
2 22830  98.4811 251.6774 0009593 302.5493  57.4765 14.32915060710780
COSMOS 2278             
1 23087U 94023A   26185.57397476 -.00000203  00000+0 -81188-4 0  9994
2 23087  71.0545 290.5482 0010151 221.6323 138.4028 14.14395935661330
SL-16 R/B               
1 23088U 94023B   26185.42659762 -.00000232  00000+0 -95374-4 0  9992
2 23088  70.9977 185.7269 0001679 164.6724 195.4449 14.15025592662603
SL-16 R/B               
1 23343U 94074B   26185.54577008  .00000648  00000+0  93209-4 0  9991
2 23343  97.6985 211.5430 0006217 187.6394 325.0204 14.79518643704523
